[{"OBJECT_NAME":"ONEWEB-0184","OBJECT_ID":"2021-031B","EPOCH":"2026-04-18T05:56:09.283488","MEAN_MOTION":13.14502172,"ECCENTRICITY":0.0002278,"INCLINATION":87.894,"RA_OF_ASC_NODE":301.6582,"ARG_OF_PERICENTER":71.3229,"MEAN_ANOMALY":288.8148,"EPHEMERIS_TYPE":0,"CLASSIFICATION_TYPE":"U","NORAD_CAT_ID":48211,"ELEMENT_SET_NO":999,"REV_AT_EPOCH":24041,"BSTAR":-0.00049277,"MEAN_MOTION_DOT":-1.7e-06,"MEAN_MOTION_DDOT":0.0},{"OBJECT_NAME":"ONEWEB-0179","OBJECT_ID":"2021-031C","EPOCH":"2026-04-18T08:00:03.000384","MEAN_MOTION":13.78425965,"ECCENTRICITY":0.0030292,"INCLINATION":87.8925,"RA_OF_ASC_NODE":301.1538,"ARG_OF_PERICENTER":80.7574,"MEAN_ANOMALY":241.5657,"EPHEMERIS_TYPE":0,"CLASSIFICATION_TYPE":"U","NORAD_CAT_ID":48212,"ELEMENT_SET_NO":999,"REV_AT_EPOCH":524,"BSTAR":0.23841,"MEAN_MOTION_DOT":0.00249361,"MEAN_MOTION_DDOT":0.0},{"OBJECT_NAME":"ONEWEB-0180","OBJECT_ID":"2021-031D","EPOCH":"2026-04-18T06:00:41.992128","MEAN_MOTION":13.14506085,"ECCENTRICITY":0.0001587,"INCLINATION":87.893,"RA_OF_ASC_NODE":301.6577,"ARG_OF_PERICENTER":77.0385,"MEAN_ANOMALY":283.0922,"EPHEMERIS_TYPE":0,"CLASSIFICATION_TYPE":"U","NORAD_CAT_ID":48213,"ELEMENT_SET_NO":999,"REV_AT_EPOCH":24034,"BSTAR":-0.0012431,"MEAN_MOTION_DOT":-4.48e-06,"MEAN_MOTION_DDOT":0.0},{"OBJECT_NAME":"ONEWEB-0218","OBJECT_ID":"2021-031E","EPOCH":"2026-04-18T06:32:41.755200","MEAN_MOTION":13.14502366,"ECCENTRICITY":0.0002088,"INCLINATION":87.8928,"RA_OF_ASC_NODE":301.6519,"ARG_OF_PERICENTER":64.7524,"MEAN_ANOMALY":295.3822,"EPHEMERIS_TYPE":0,"CLASSIFICATION_TYPE":"U","NORAD_CAT_ID":48214,"ELEMENT_SET_NO":999,"REV_AT_EPOCH":24050,"BSTAR":-0.0001659,"MEAN_MOTION_DOT":-4.9e-07,"MEAN_MOTION_DDOT":0.0},{"OBJECT_NAME":"ONEWEB-0209","OBJECT_ID":"2021-031F","EPOCH":"2026-04-18T06:16:42.591648","MEAN_MOTION":13.14501461,"ECCENTRICITY":0.0001538,"INCLINATION":87.8917,"RA_OF_ASC_NODE":301.6776,"ARG_OF_PERICENTER":86.6891,"MEAN_ANOMALY":273.4415,"EPHEMERIS_TYPE":0,"CLASSIFICATION_TYPE":"U","NORAD_CAT_ID":48215,"ELEMENT_SET_NO":999,"REV_AT_EPOCH":24050,"BSTAR":-0.0006114800000000001,"MEAN_MOTION_DOT":-2.14e-06,"MEAN_MOTION_DDOT":0.0},{"OBJECT_NAME":"ONEWEB-0198","OBJECT_ID":"2021-031G","EPOCH":"2026-04-18T05:54:04.268736","MEAN_MOTION":13.14502213,"ECCENTRICITY":0.0001619,"INCLINATION":87.8921,"RA_OF_ASC_NODE":301.681,"ARG_OF_PERICENTER":74.0129,"MEAN_ANOMALY":286.1179,"EPHEMERIS_TYPE":0,"CLASSIFICATION_TYPE":"U","NORAD_CAT_ID":48216,"ELEMENT_SET_NO":999,"REV_AT_EPOCH":24061,"BSTAR":-0.00038279000000000004,"MEAN_MOTION_DOT":-1.29e-06,"MEAN_MOTION_DDOT":0.0},{"OBJECT_NAME":"ONEWEB-0189","OBJECT_ID":"2021-031H","EPOCH":"2026-04-18T06:12:08.330400","MEAN_MOTION":13.14501848,"ECCENTRICITY":0.0001642,"INCLINATION":87.8932,"RA_OF_ASC_NODE":301.6582,"ARG_OF_PERICENTER":78.1145,"MEAN_ANOMALY":282.0169,"EPHEMERIS_TYPE":0,"CLASSIFICATION_TYPE":"U","NORAD_CAT_ID":48217,"ELEMENT_SET_NO":999,"REV_AT_EPOCH":24035,"BSTAR":-0.00038105,"MEAN_MOTION_DOT":-1.28e-06,"MEAN_MOTION_DDOT":0.0},{"OBJECT_NAME":"ONEWEB-0196","OBJECT_ID":"2021-031J","EPOCH":"2026-04-18T05:40:10.682400","MEAN_MOTION":13.14503029,"ECCENTRICITY":0.0001619,"INCLINATION":87.8932,"RA_OF_ASC_NODE":301.6728,"ARG_OF_PERICENTER":84.6204,"MEAN_ANOMALY":275.511,"EPHEMERIS_TYPE":0,"CLASSIFICATION_TYPE":"U","NORAD_CAT_ID":48218,"ELEMENT_SET_NO":999,"REV_AT_EPOCH":24035,"BSTAR":-8.164000000000001e-05,"MEAN_MOTION_DOT":-1.7e-07,"MEAN_MOTION_DDOT":0.0},{"OBJECT_NAME":"ONEWEB-0183","OBJECT_ID":"2021-031K","EPOCH":"2026-04-17T23:34:48.311904","MEAN_MOTION":13.14502678,"ECCENTRICITY":0.0001585,"INCLINATION":87.8923,"RA_OF_ASC_NODE":301.7225,"ARG_OF_PERICENTER":95.9061,"MEAN_ANOMALY":264.2249,"EPHEMERIS_TYPE":0,"CLASSIFICATION_TYPE":"U","NORAD_CAT_ID":48219,"ELEMENT_SET_NO":999,"REV_AT_EPOCH":24041,"BSTAR":0.00050314,"MEAN_MOTION_DOT":1.99e-06,"MEAN_MOTION_DDOT":0.0},{"OBJECT_NAME":"ONEWEB-0185","OBJECT_ID":"2021-031L","EPOCH":"2026-04-18T05:41:19.290912","MEAN_MOTION":13.14503481,"ECCENTRICITY":0.0001289,"INCLINATION":87.8939,"RA_OF_ASC_NODE":301.6596,"ARG_OF_PERICENTER":92.2768,"MEAN_ANOMALY":267.851,"EPHEMERIS_TYPE":0,"CLASSIFICATION_TYPE":"U","NORAD_CAT_ID":48220,"ELEMENT_SET_NO":999,"REV_AT_EPOCH":24037,"BSTAR":9.7516e-05,"MEAN_MOTION_DOT":4.9e-07,"MEAN_MOTION_DDOT":0.0},{"OBJECT_NAME":"ONEWEB-0187","OBJECT_ID":"2021-031M","EPOCH":"2026-04-18T01:33:20.484288","MEAN_MOTION":13.14497871,"ECCENTRICITY":0.0001457,"INCLINATION":87.8916,"RA_OF_ASC_NODE":301.7205,"ARG_OF_PERICENTER":84.8173,"MEAN_ANOMALY":275.3123,"EPHEMERIS_TYPE":0,"CLASSIFICATION_TYPE":"U","NORAD_CAT_ID":48221,"ELEMENT_SET_NO":999,"REV_AT_EPOCH":24036,"BSTAR":0.00064235,"MEAN_MOTION_DOT":2.51e-06,"MEAN_MOTION_DDOT":0.0},{"OBJECT_NAME":"ONEWEB-0192","OBJECT_ID":"2021-031N","EPOCH":"2026-04-18T06:18:59.418144","MEAN_MOTION":13.14501649,"ECCENTRICITY":0.0001755,"INCLINATION":87.8916,"RA_OF_ASC_NODE":301.6695,"ARG_OF_PERICENTER":86.3167,"MEAN_ANOMALY":273.8163,"EPHEMERIS_TYPE":0,"CLASSIFICATION_TYPE":"U","NORAD_CAT_ID":48222,"ELEMENT_SET_NO":999,"REV_AT_EPOCH":24030,"BSTAR":-0.00046952,"MEAN_MOTION_DOT":-1.61e-06,"MEAN_MOTION_DDOT":0.0},{"OBJECT_NAME":"ONEWEB-0219","OBJECT_ID":"2021-031P","EPOCH":"2026-04-18T05:49:18.241536","MEAN_MOTION":13.1450244,"ECCENTRICITY":0.0001446,"INCLINATION":87.8927,"RA_OF_ASC_NODE":301.6627,"ARG_OF_PERICENTER":87.3948,"MEAN_ANOMALY":272.7348,"EPHEMERIS_TYPE":0,"CLASSIFICATION_TYPE":"U","NORAD_CAT_ID":48223,"ELEMENT_SET_NO":999,"REV_AT_EPOCH":24050,"BSTAR":-0.00022997000000000002,"MEAN_MOTION_DOT":-7.2e-07,"MEAN_MOTION_DDOT":0.0},{"OBJECT_NAME":"ONEWEB-0202","OBJECT_ID":"2021-031Q","EPOCH":"2026-04-18T05:21:54.161856","MEAN_MOTION":13.14503897,"ECCENTRICITY":0.0001958,"INCLINATION":87.8932,"RA_OF_ASC_NODE":301.6764,"ARG_OF_PERICENTER":69.5857,"MEAN_ANOMALY":290.5483,"EPHEMERIS_TYPE":0,"CLASSIFICATION_TYPE":"U","NORAD_CAT_ID":48224,"ELEMENT_SET_NO":999,"REV_AT_EPOCH":24048,"BSTAR":0.00052533,"MEAN_MOTION_DOT":2.08e-06,"MEAN_MOTION_DDOT":0.0},{"OBJECT_NAME":"ONEWEB-0204","OBJECT_ID":"2021-031R","EPOCH":"2026-04-18T06:10:59.909376","MEAN_MOTION":13.14502545,"ECCENTRICITY":0.0001523,"INCLINATION":87.893,"RA_OF_ASC_NODE":301.6643,"ARG_OF_PERICENTER":98.7878,"MEAN_ANOMALY":261.3424,"EPHEMERIS_TYPE":0,"CLASSIFICATION_TYPE":"U","NORAD_CAT_ID":48225,"ELEMENT_SET_NO":999,"REV_AT_EPOCH":24038,"BSTAR":-0.00057412,"MEAN_MOTION_DOT":-2e-06,"MEAN_MOTION_DDOT":0.0},{"OBJECT_NAME":"ONEWEB-0205","OBJECT_ID":"2021-031S","EPOCH":"2026-04-18T05:35:36.187872","MEAN_MOTION":13.14502677,"ECCENTRICITY":0.0001517,"INCLINATION":87.893,"RA_OF_ASC_NODE":301.6601,"ARG_OF_PERICENTER":87.5112,"MEAN_ANOMALY":272.6192,"EPHEMERIS_TYPE":0,"CLASSIFICATION_TYPE":"U","NORAD_CAT_ID":48226,"ELEMENT_SET_NO":999,"REV_AT_EPOCH":24039,"BSTAR":0.00027553,"MEAN_MOTION_DOT":1.15e-06,"MEAN_MOTION_DDOT":0.0}]