ONEWEB-0184             
1 48211U 21031B   26108.24732967 -.00000170  00000+0 -49277-3 0  9991
2 48211  87.8940 301.6582 0002278  71.3229 288.8148 13.14502172240418
ONEWEB-0179             
1 48212U 21031C   26108.33336806  .00249361  00000+0  23841+0 0  9994
2 48212  87.8925 301.1538 0030292  80.7574 241.5657 13.78425965  5247
ONEWEB-0180             
1 48213U 21031D   26108.25048602 -.00000448  00000+0 -12431-2 0  9999
2 48213  87.8930 301.6577 0001587  77.0385 283.0922 13.14506085240347
ONEWEB-0218             
1 48214U 21031E   26108.27270550 -.00000049  00000+0 -16590-3 0  9999
2 48214  87.8928 301.6519 0002088  64.7524 295.3822 13.14502366240507
ONEWEB-0209             
1 48215U 21031F   26108.26160407 -.00000214  00000+0 -61148-3 0  9991
2 48215  87.8917 301.6776 0001538  86.6891 273.4415 13.14501461240500
ONEWEB-0198             
1 48216U 21031G   26108.24588274 -.00000129  00000+0 -38279-3 0  9990
2 48216  87.8921 301.6810 0001619  74.0129 286.1179 13.14502213240616
ONEWEB-0189             
1 48217U 21031H   26108.25842975 -.00000128  00000+0 -38105-3 0  9990
2 48217  87.8932 301.6582 0001642  78.1145 282.0169 13.14501848240352
ONEWEB-0196             
1 48218U 21031J   26108.23623475 -.00000017  00000+0 -81640-4 0  9991
2 48218  87.8932 301.6728 0001619  84.6204 275.5110 13.14503029240353
ONEWEB-0183             
1 48219U 21031K   26107.98250361  .00000199  00000+0  50314-3 0  9995
2 48219  87.8923 301.7225 0001585  95.9061 264.2249 13.14502678240419
ONEWEB-0185             
1 48220U 21031L   26108.23702883  .00000049  00000+0  97516-4 0  9997
2 48220  87.8939 301.6596 0001289  92.2768 267.8510 13.14503481240371
ONEWEB-0187             
1 48221U 21031M   26108.06482042  .00000251  00000+0  64235-3 0  9997
2 48221  87.8916 301.7205 0001457  84.8173 275.3123 13.14497871240367
ONEWEB-0192             
1 48222U 21031N   26108.26318771 -.00000161  00000+0 -46952-3 0  9995
2 48222  87.8916 301.6695 0001755  86.3167 273.8163 13.14501649240301
ONEWEB-0219             
1 48223U 21031P   26108.24257224 -.00000072  00000+0 -22997-3 0  9993
2 48223  87.8927 301.6627 0001446  87.3948 272.7348 13.14502440240509
ONEWEB-0202             
1 48224U 21031Q   26108.22354354  .00000208  00000+0  52533-3 0  9992
2 48224  87.8932 301.6764 0001958  69.5857 290.5483 13.14503897240489
ONEWEB-0204             
1 48225U 21031R   26108.25763784 -.00000200  00000+0 -57412-3 0  9992
2 48225  87.8930 301.6643 0001523  98.7878 261.3424 13.14502545240388
ONEWEB-0205             
1 48226U 21031S   26108.23305773  .00000115  00000+0  27553-3 0  9997
2 48226  87.8930 301.6601 0001517  87.5112 272.6192 13.14502677240397
